[{"OBJECT_NAME":"STARLINK-30551","OBJECT_ID":"2023-160J","EPOCH":"2026-03-08T03:15:35.109792","MEAN_MOTION":15.02628096,"ECCENTRICITY":0.00011253,"INCLINATION":43.0022,"RA_OF_ASC_NODE":88.7362,"ARG_OF_PERICENTER":177.083,"MEAN_ANOMALY":183.0019,"EPHEMERIS_TYPE":0,"CLASSIFICATION_TYPE":"U","NORAD_CAT_ID":58083,"ELEMENT_SET_NO":999,"REV_AT_EPOCH":13268,"BSTAR":0.00093979265,"MEAN_MOTION_DOT":0.00012545,"MEAN_MOTION_DDOT":0},{"OBJECT_NAME":"UM5-EOSAT","OBJECT_ID":"2024-149CR","EPOCH":"2026-03-09T17:21:09.122400","MEAN_MOTION":15.00894746,"ECCENTRICITY":0.00087192,"INCLINATION":97.6855,"RA_OF_ASC_NODE":148.6787,"ARG_OF_PERICENTER":107.8964,"MEAN_ANOMALY":252.3212,"EPHEMERIS_TYPE":0,"CLASSIFICATION_TYPE":"U","NORAD_CAT_ID":60555,"ELEMENT_SET_NO":999,"REV_AT_EPOCH":8529,"BSTAR":0.00036077282,"MEAN_MOTION_DOT":4.537e-5,"MEAN_MOTION_DDOT":0}]
